[Satellite]
VERSION=1.1
NAME=ARSENE (AO-24)
NICKNAME=AO-24
TLE1=1 22654U 93031B   11057.84754721 -.00000167  00000-0  10000-3 0  4575
TLE2=2 22654   4.5361 324.7466 2840059 198.0961 149.3486  1.42205206 87938
